[{"OBJECT_NAME":"BUFENG 1B","OBJECT_ID":"2019-032B","EPOCH":"2026-03-09T19:57:27.457920","MEAN_MOTION":15.25619535,"ECCENTRICITY":0.00242037,"INCLINATION":44.9701,"RA_OF_ASC_NODE":192.0248,"ARG_OF_PERICENTER":123.8847,"MEAN_ANOMALY":236.4342,"EPHEMERIS_TYPE":0,"CLASSIFICATION_TYPE":"U","NORAD_CAT_ID":44311,"ELEMENT_SET_NO":999,"REV_AT_EPOCH":37256,"BSTAR":0.00059375374,"MEAN_MOTION_DOT":0.00015236,"MEAN_MOTION_DDOT":0},{"OBJECT_NAME":"STARLINK-33974","OBJECT_ID":"2025-099C","EPOCH":"2026-03-09T07:25:40.708416","MEAN_MOTION":15.27587074,"ECCENTRICITY":0.00018341,"INCLINATION":42.9999,"RA_OF_ASC_NODE":178.7605,"ARG_OF_PERICENTER":275.0177,"MEAN_ANOMALY":85.0465,"EPHEMERIS_TYPE":0,"CLASSIFICATION_TYPE":"U","NORAD_CAT_ID":63954,"ELEMENT_SET_NO":999,"REV_AT_EPOCH":4727,"BSTAR":0.0014137065,"MEAN_MOTION_DOT":0.00038854,"MEAN_MOTION_DDOT":0}]
